start=new Date('2022-02-25T00:00:00.000Z').valueOf();
sats=[{"OBJECT_NAME":"STARLINK-1168","DECAY_DATE":null,"SEMIMAJOR_AXIS":"6925.390","COUNTRY_CODE":"US","APOAPSIS":"548.574","OBJECT_TYPE":"PAYLOAD","BSTAR":"0.00005627800000","CENTER_NAME":"EARTH","CLASSIFICATION_TYPE":"U","PERIOD":"95.593","SITE":"AFETR","FILE":"3320325","PERIAPSIS":"545.936","TLE_LINE1":"1 45072U 20006AE  22055.69783368  .00000556  00000-0  56278-4 0  9998","RCS_SIZE":"LARGE","MEAN_MOTION":"15.06386468","EPHEMERIS_TYPE":"0","GP_ID":"196898660","REV_AT_EPOCH":"11457","TIME_SYSTEM":"UTC","MEAN_MOTION_DDOT":"0.0000000000000","TLE_LINE2":"2 45072  53.0560  43.6203 0001905  49.8479 310.2676 15.06386468114573","REF_FRAME":"TEME","OBJECT_ID":"2020-006AE","ARG_OF_PERICENTER":"49.8479","MEAN_MOTION_DOT":"0.00000556","EPOCH":"2022-02-24T16:44:52.829952","ECCENTRICITY":"0.00019050","RA_OF_ASC_NODE":"43.6203","MEAN_ANOMALY":"310.2676","NORAD_CAT_ID":"45072","INCLINATION":"53.0560","ELEMENT_SET_NO":"999","LAUNCH_DATE":"2020-01-29","MEAN_ELEMENT_THEORY":"SGP4"},{"CLASSIFICATION_TYPE":"U","CENTER_NAME":"EARTH","BSTAR":"-0.00007058000000","FILE":"3320325","PERIAPSIS":"545.953","PERIOD":"95.593","SITE":"AFETR","DECAY_DATE":null,"SEMIMAJOR_AXIS":"6925.381","OBJECT_NAME":"STARLINK-1170","APOAPSIS":"548.539","OBJECT_TYPE":"PAYLOAD","COUNTRY_CODE":"US","MEAN_ANOMALY":"307.6086","ECCENTRICITY":"0.00018670","RA_OF_ASC_NODE":"42.9052","MEAN_ELEMENT_THEORY":"SGP4","NORAD_CAT_ID":"45073","INCLINATION":"53.0550","ELEMENT_SET_NO":"999","LAUNCH_DATE":"2020-01-29","TLE_LINE1":"1 45073U 20006AF  22055.85632462 -.00001332  00000-0 -70580-4 0  9992","RCS_SIZE":"LARGE","MEAN_MOTION":"15.06389279","EPHEMERIS_TYPE":"0","GP_ID":"196899410","MEAN_MOTION_DOT":"-0.00001332","EPOCH":"2022-02-24T20:33:06.447168","REV_AT_EPOCH":"11459","TIME_SYSTEM":"UTC","REF_FRAME":"TEME","TLE_LINE2":"2 45073  53.0550  42.9052 0001867  52.5073 307.6086 15.06389279114595","MEAN_MOTION_DDOT":"0.0000000000000","ARG_OF_PERICENTER":"52.5073","OBJECT_ID":"2020-006AF"},{"TLE_LINE2":"2 45074  53.0551  45.0806 0001594  64.7967 295.3187 15.06414595114520","ARG_OF_PERICENTER":"64.7967","MEAN_MOTION_DDOT":"0.0000000000000","OBJECT_ID":"2020-006AG","REF_FRAME":"TEME","TIME_SYSTEM":"UTC","REV_AT_EPOCH":"11452","EPOCH":"2022-02-24T09:03:06.631776","MEAN_MOTION_DOT":"0.00008356","GP_ID":"196839475","EPHEMERIS_TYPE":"0","MEAN_MOTION":"15.06414595","TLE_LINE1":"1 45074U 20006AG  22055.37716009  .00008356  00000-0  57896-3 0  9995","RCS_SIZE":"LARGE","LAUNCH_DATE":"2020-01-29","ELEMENT_SET_NO":"999","INCLINATION":"53.0551","NORAD_CAT_ID":"45074","MEAN_ELEMENT_THEORY":"SGP4","RA_OF_ASC_NODE":"45.0806","ECCENTRICITY":"0.00015940","MEAN_ANOMALY":"295.3187","COUNTRY_CODE":"US","OBJECT_TYPE":"PAYLOAD","APOAPSIS":"548.273","OBJECT_NAME":"STARLINK-1172","SEMIMAJOR_AXIS":"6925.304","DECAY_DATE":null,"SITE":"AFETR","PERIOD":"95.591","PERIAPSIS":"546.065","FILE":"3318573","BSTAR":"0.00057896000000","CLASSIFICATION_TYPE":"U","CENTER_NAME":"EARTH"},{"MEAN_MOTION_DDOT":"0.0000000000000","TLE_LINE2":"2 45075  53.0542  43.7262 0001679  65.4481 294.6683 15.06394354114573","OBJECT_ID":"2020-006AH","REF_FRAME":"TEME","ARG_OF_PERICENTER":"65.4481","REV_AT_EPOCH":"11457","TIME_SYSTEM":"UTC","MEAN_MOTION_DOT":"0.00000984","EPOCH":"2022-02-24T16:13:00.842880","GP_ID":"196900412","TLE_LINE1":"1 45075U 20006AH  22055.67570420  .00000984  00000-0  84950-4 0  9995","MEAN_MOTION":"15.06394354","RCS_SIZE":"LARGE","EPHEMERIS_TYPE":"0","LAUNCH_DATE":"2020-01-29","INCLINATION":"53.0542","NORAD_CAT_ID":"45075","ELEMENT_SET_NO":"999","MEAN_ELEMENT_THEORY":"SGP4","RA_OF_ASC_NODE":"43.7262","ECCENTRICITY":"0.00016790","MEAN_ANOMALY":"294.6683","COUNTRY_CODE":"US","APOAPSIS":"548.394","OBJECT_TYPE":"PAYLOAD","OBJECT_NAME":"STARLINK-1174","SEMIMAJOR_AXIS":"6925.366","DECAY_DATE":null,"SITE":"AFETR","PERIOD":"95.592","FILE":"3320325","PERIAPSIS":"546.068","BSTAR":"0.00008495000000","CENTER_NAME":"EARTH","CLASSIFICATION_TYPE":"U"},{"TLE_LINE1":"1 45076U 20006AJ  22055.94847140 -.00001296  00000-0 -68149-4 0  9993","MEAN_MOTION":"15.06392398","RCS_SIZE":"LARGE","EPHEMERIS_TYPE":"0","GP_ID":"196899160","MEAN_MOTION_DOT":"-0.00001296","EPOCH":"2022-02-24T22:45:47.928960","REV_AT_EPOCH":"11461","TIME_SYSTEM":"UTC","TLE_LINE2":"2 45076  53.0554  42.4976 0001746  65.7913 294.3259 15.06392398114610","OBJECT_ID":"2020-006AJ","MEAN_MOTION_DDOT":"0.0000000000000","REF_FRAME":"TEME","ARG_OF_PERICENTER":"65.7913","MEAN_ANOMALY":"294.3259","ECCENTRICITY":"0.00017460","RA_OF_ASC_NODE":"42.4976","MEAN_ELEMENT_THEORY":"SGP4","INCLINATION":"53.0554","NORAD_CAT_ID":"45076","ELEMENT_SET_NO":"999","LAUNCH_DATE":"2020-01-29","DECAY_DATE":null,"SEMIMAJOR_AXIS":"6925.372","OBJECT_NAME":"STARLINK-1180","APOAPSIS":"548.446","OBJECT_TYPE":"PAYLOAD","COUNTRY_CODE":"US","CENTER_NAME":"EARTH","CLASSIFICATION_TYPE":"U","BSTAR":"-0.00006814900000","PERIAPSIS":"546.028","FILE":"3320325","PERIOD":"95.593","SITE":"AFETR"},{"MEAN_MOTION_DOT":"0.00070203","EPOCH":"2022-02-24T18:56:37.383648","TLE_LINE2":"2 45077  53.0541 338.8984 0008377 277.6072  82.4000 15.86789091115490","REF_FRAME":"TEME","MEAN_MOTION_DDOT":"0.0000000000000","OBJECT_ID":"2020-006AK","ARG_OF_PERICENTER":"277.6072","REV_AT_EPOCH":"11549","TIME_SYSTEM":"UTC","GP_ID":"196898911","TLE_LINE1":"1 45077U 20006AK  22055.78932157  .00070203  00000-0  26859-3 0  9992","RCS_SIZE":"LARGE","MEAN_MOTION":"15.86789091","EPHEMERIS_TYPE":"0","MEAN_ELEMENT_THEORY":"SGP4","LAUNCH_DATE":"2020-01-29","INCLINATION":"53.0541","NORAD_CAT_ID":"45077","ELEMENT_SET_NO":"999","MEAN_ANOMALY":"82.4000","RA_OF_ASC_NODE":"338.8984","ECCENTRICITY":"0.00083770","APOAPSIS":"316.898","OBJECT_TYPE":"PAYLOAD","COUNTRY_CODE":"US","SEMIMAJOR_AXIS":"6689.429","DECAY_DATE":null,"OBJECT_NAME":"STARLINK-1182","PERIAPSIS":"305.690","FILE":"3320325","SITE":"AFETR","PERIOD":"90.749","CENTER_NAME":"EARTH","CLASSIFICATION_TYPE":"U","BSTAR":"0.00026859000000"},{"BSTAR":"-0.00005608700000","CENTER_NAME":"EARTH","CLASSIFICATION_TYPE":"U","SITE":"AFETR","PERIOD":"95.593","FILE":"3320325","PERIAPSIS":"545.906","OBJECT_NAME":"STARLINK-1177","SEMIMAJOR_AXIS":"6925.372","DECAY_DATE":null,"COUNTRY_CODE":"US","OBJECT_TYPE":"PAYLOAD","APOAPSIS":"548.569","RA_OF_ASC_NODE":"42.7274","ECCENTRICITY":"0.00019230","MEAN_ANOMALY":"304.1961","LAUNCH_DATE":"2020-01-29","ELEMENT_SET_NO":"999","INCLINATION":"53.0547","NORAD_CAT_ID":"45078","MEAN_ELEMENT_THEORY":"SGP4","GP_ID":"196900162","EPHEMERIS_TYPE":"0","MEAN_MOTION":"15.06392222","TLE_LINE1":"1 45078U 20006AL  22055.90055426 -.00001117  00000-0 -56087-4 0  9999","RCS_SIZE":"LARGE","REF_FRAME":"TEME","TLE_LINE2":"2 45078  53.0547  42.7274 0001923  55.9210 304.1961 15.06392222114599","MEAN_MOTION_DDOT":"0.0000000000000","OBJECT_ID":"2020-006AL","ARG_OF_PERICENTER":"55.9210","TIME_SYSTEM":"UTC","REV_AT_EPOCH":"11459","EPOCH":"2022-02-24T21:36:47.888064","MEAN_MOTION_DOT":"-0.00001117"},{"COUNTRY_CODE":"US","OBJECT_TYPE":"PAYLOAD","APOAPSIS":"548.235","OBJECT_NAME":"STARLINK-1149","DECAY_DATE":null,"SEMIMAJOR_AXIS":"6925.348","PERIOD":"95.592","SITE":"AFETR","PERIAPSIS":"546.191","FILE":"3320325","BSTAR":"0.00022646000000","CENTER_NAME":"EARTH","CLASSIFICATION_TYPE":"U","TIME_SYSTEM":"UTC","REV_AT_EPOCH":"11460","TLE_LINE2":"2 45079  53.0546  42.5108 0001476  77.1218 282.9936 15.06400285114606","MEAN_MOTION_DDOT":"0.0000000000000","ARG_OF_PERICENTER":"77.1218","OBJECT_ID":"2020-006AM","REF_FRAME":"TEME","EPOCH":"2022-02-24T22:40:29.247744","MEAN_MOTION_DOT":"0.00003093","EPHEMERIS_TYPE":"0","TLE_LINE1":"1 45079U 20006AM  22055.94478296  .00003093  00000-0  22646-3 0  9994","MEAN_MOTION":"15.06400285","RCS_SIZE":"LARGE","GP_ID":"196899913","ELEMENT_SET_NO":"999","INCLINATION":"53.0546","NORAD_CAT_ID":"45079","LAUNCH_DATE":"2020-01-29","MEAN_ELEMENT_THEORY":"SGP4","ECCENTRICITY":"0.00014760","RA_OF_ASC_NODE":"42.5108","MEAN_ANOMALY":"282.9936"},{"PERIAPSIS":"545.876","FILE":"3320325","SITE":"AFETR","PERIOD":"95.593","CENTER_NAME":"EARTH","CLASSIFICATION_TYPE":"U","BSTAR":"0.00005840400000","APOAPSIS":"548.640","OBJECT_TYPE":"PAYLOAD","COUNTRY_CODE":"US","SEMIMAJOR_AXIS":"6925.393","DECAY_DATE":null,"OBJECT_NAME":"STARLINK-1153","MEAN_ELEMENT_THEORY":"SGP4","LAUNCH_DATE":"2020-01-29","NORAD_CAT_ID":"45080","INCLINATION":"53.0552","ELEMENT_SET_NO":"999","MEAN_ANOMALY":"305.5719","RA_OF_ASC_NODE":"43.6715","ECCENTRICITY":"0.00019950","MEAN_MOTION_DOT":"0.00000588","EPOCH":"2022-02-24T16:28:57.487008","OBJECT_ID":"2020-006AN","TLE_LINE2":"2 45080  53.0552  43.6715 0001995  54.5456 305.5719 15.06385469114573","MEAN_MOTION_DDOT":"0.0000000000000","REF_FRAME":"TEME","ARG_OF_PERICENTER":"54.5456","REV_AT_EPOCH":"11457","TIME_SYSTEM":"UTC","GP_ID":"196898661","TLE_LINE1":"1 45080U 20006AN  22055.68677647  .00000588  00000-0  58404-4 0  9996","RCS_SIZE":"LARGE","MEAN_MOTION":"15.06385469","EPHEMERIS_TYPE":"0"},{"OBJECT_NAME":"STARLINK-1151","SEMIMAJOR_AXIS":"6925.389","DECAY_DATE":null,"COUNTRY_CODE":"US","APOAPSIS":"548.784","OBJECT_TYPE":"PAYLOAD","BSTAR":"-0.00009480200000","CLASSIFICATION_TYPE":"U","CENTER_NAME":"EARTH","SITE":"AFETR","PERIOD":"95.593","FILE":"3320325","PERIAPSIS":"545.724","GP_ID":"196899411","MEAN_MOTION":"15.06386881","TLE_LINE1":"1 45081U 20006AP  22055.66465483 -.00001693  00000-0 -94802-4 0  9990","RCS_SIZE":"LARGE","EPHEMERIS_TYPE":"0","TLE_LINE2":"2 45081  53.0549  43.7886 0002209  56.4006 303.7194 15.06386881114577","OBJECT_ID":"2020-006AP","MEAN_MOTION_DDOT":"0.0000000000000","ARG_OF_PERICENTER":"56.4006","REF_FRAME":"TEME","REV_AT_EPOCH":"11457","TIME_SYSTEM":"UTC","MEAN_MOTION_DOT":"-0.00001693","EPOCH":"2022-02-24T15:57:06.177312","RA_OF_ASC_NODE":"43.7886","ECCENTRICITY":"0.00022090","MEAN_ANOMALY":"303.7194","LAUNCH_DATE":"2020-01-29","INCLINATION":"53.0549","NORAD_CAT_ID":"45081","ELEMENT_SET_NO":"999","MEAN_ELEMENT_THEORY":"SGP4"}];
